[{"OBJECT_NAME":"STARLINK-30121","OBJECT_ID":"2023-067H","EPOCH":"2025-09-26T20:36:16.752672","MEAN_MOTION":15.02535056,"ECCENTRICITY":6.279e-5,"INCLINATION":42.9995,"RA_OF_ASC_NODE":84.8205,"ARG_OF_PERICENTER":298.0235,"MEAN_ANOMALY":62.0543,"EPHEMERIS_TYPE":0,"CLASSIFICATION_TYPE":"U","NORAD_CAT_ID":56695,"ELEMENT_SET_NO":999,"REV_AT_EPOCH":13101,"BSTAR":9.2472196e-5,"MEAN_MOTION_DOT":1.046e-5,"MEAN_MOTION_DDOT":0},{"OBJECT_NAME":"STARLINK-30130","OBJECT_ID":"2023-067K","EPOCH":"2025-09-26T19:57:55.861056","MEAN_MOTION":15.02527069,"ECCENTRICITY":0.00010123,"INCLINATION":43.003,"RA_OF_ASC_NODE":84.6372,"ARG_OF_PERICENTER":264.4409,"MEAN_ANOMALY":95.6318,"EPHEMERIS_TYPE":0,"CLASSIFICATION_TYPE":"U","NORAD_CAT_ID":56697,"ELEMENT_SET_NO":999,"REV_AT_EPOCH":13075,"BSTAR":0.00029378962,"MEAN_MOTION_DOT":3.766e-5,"MEAN_MOTION_DDOT":0},{"OBJECT_NAME":"STARLINK-30068","OBJECT_ID":"2023-067L","EPOCH":"2025-09-26T20:07:54.664896","MEAN_MOTION":15.02476301,"ECCENTRICITY":0.00014704,"INCLINATION":43.0034,"RA_OF_ASC_NODE":71.7011,"ARG_OF_PERICENTER":274.4854,"MEAN_ANOMALY":85.582,"EPHEMERIS_TYPE":0,"CLASSIFICATION_TYPE":"U","NORAD_CAT_ID":56698,"ELEMENT_SET_NO":999,"REV_AT_EPOCH":13090,"BSTAR":0.0010665983,"MEAN_MOTION_DOT":0.00014211,"MEAN_MOTION_DDOT":0},{"OBJECT_NAME":"STARLINK-30127","OBJECT_ID":"2023-067M","EPOCH":"2025-09-26T18:55:45.592896","MEAN_MOTION":15.02534043,"ECCENTRICITY":0.00013763,"INCLINATION":43.0036,"RA_OF_ASC_NODE":85.1769,"ARG_OF_PERICENTER":267.2513,"MEAN_ANOMALY":92.8172,"EPHEMERIS_TYPE":0,"CLASSIFICATION_TYPE":"U","NORAD_CAT_ID":56699,"ELEMENT_SET_NO":999,"REV_AT_EPOCH":13100,"BSTAR":7.1001015e-5,"MEAN_MOTION_DOT":7.56e-6,"MEAN_MOTION_DDOT":0},{"OBJECT_NAME":"STARLINK-30053","OBJECT_ID":"2023-067N","EPOCH":"2025-09-26T20:26:43.708128","MEAN_MOTION":15.02513197,"ECCENTRICITY":3.653e-5,"INCLINATION":43,"RA_OF_ASC_NODE":84.7896,"ARG_OF_PERICENTER":309.4965,"MEAN_ANOMALY":50.5845,"EPHEMERIS_TYPE":0,"CLASSIFICATION_TYPE":"U","NORAD_CAT_ID":56700,"ELEMENT_SET_NO":999,"REV_AT_EPOCH":13101,"BSTAR":-1.2620706e-5,"MEAN_MOTION_DOT":-3.74e-6,"MEAN_MOTION_DDOT":0},{"OBJECT_NAME":"STARLINK-30125","OBJECT_ID":"2023-067P","EPOCH":"2025-09-26T18:46:10.199136","MEAN_MOTION":15.02533024,"ECCENTRICITY":0.00014008,"INCLINATION":43.0034,"RA_OF_ASC_NODE":85.127,"ARG_OF_PERICENTER":263.6111,"MEAN_ANOMALY":96.4572,"EPHEMERIS_TYPE":0,"CLASSIFICATION_TYPE":"U","NORAD_CAT_ID":56701,"ELEMENT_SET_NO":999,"REV_AT_EPOCH":13100,"BSTAR":4.8978804e-5,"MEAN_MOTION_DOT":4.58e-6,"MEAN_MOTION_DDOT":0},{"OBJECT_NAME":"STARLINK-30117","OBJECT_ID":"2023-067Q","EPOCH":"2025-09-26T19:38:53.723040","MEAN_MOTION":15.02539047,"ECCENTRICITY":0.00012548,"INCLINATION":43.0031,"RA_OF_ASC_NODE":85.3352,"ARG_OF_PERICENTER":269.0085,"MEAN_ANOMALY":91.0613,"EPHEMERIS_TYPE":0,"CLASSIFICATION_TYPE":"U","NORAD_CAT_ID":56702,"ELEMENT_SET_NO":999,"REV_AT_EPOCH":13100,"BSTAR":5.0539383e-5,"MEAN_MOTION_DOT":4.79e-6,"MEAN_MOTION_DDOT":0},{"OBJECT_NAME":"STARLINK-30132","OBJECT_ID":"2023-067R","EPOCH":"2025-09-26T20:17:05.881344","MEAN_MOTION":15.0253551,"ECCENTRICITY":0.00015151,"INCLINATION":43.0042,"RA_OF_ASC_NODE":84.7337,"ARG_OF_PERICENTER":274.2214,"MEAN_ANOMALY":85.8456,"EPHEMERIS_TYPE":0,"CLASSIFICATION_TYPE":"U","NORAD_CAT_ID":56703,"ELEMENT_SET_NO":999,"REV_AT_EPOCH":13101,"BSTAR":4.0298366e-5,"MEAN_MOTION_DOT":3.41e-6,"MEAN_MOTION_DDOT":0},{"OBJECT_NAME":"STARLINK-30066","OBJECT_ID":"2023-067S","EPOCH":"2025-09-26T19:48:19.785600","MEAN_MOTION":15.02532532,"ECCENTRICITY":0.00011627,"INCLINATION":43.0043,"RA_OF_ASC_NODE":84.5726,"ARG_OF_PERICENTER":275.3035,"MEAN_ANOMALY":84.7675,"EPHEMERIS_TYPE":0,"CLASSIFICATION_TYPE":"U","NORAD_CAT_ID":56704,"ELEMENT_SET_NO":999,"REV_AT_EPOCH":13101,"BSTAR":7.2772902e-5,"MEAN_MOTION_DOT":7.79e-6,"MEAN_MOTION_DDOT":0},{"OBJECT_NAME":"STARLINK-30080","OBJECT_ID":"2023-067T","EPOCH":"2025-09-26T18:27:23.067072","MEAN_MOTION":15.02540365,"ECCENTRICITY":0.00019816,"INCLINATION":43.004,"RA_OF_ASC_NODE":72.0994,"ARG_OF_PERICENTER":271.6711,"MEAN_ANOMALY":88.3905,"EPHEMERIS_TYPE":0,"CLASSIFICATION_TYPE":"U","NORAD_CAT_ID":56705,"ELEMENT_SET_NO":999,"REV_AT_EPOCH":13115,"BSTAR":0.00024829735,"MEAN_MOTION_DOT":3.152e-5,"MEAN_MOTION_DDOT":0},{"OBJECT_NAME":"STARLINK-30079","OBJECT_ID":"2023-067U","EPOCH":"2025-09-26T23:18:57.888576","MEAN_MOTION":15.02534607,"ECCENTRICITY":0.00015463,"INCLINATION":43.0027,"RA_OF_ASC_NODE":83.965,"ARG_OF_PERICENTER":265.697,"MEAN_ANOMALY":94.3695,"EPHEMERIS_TYPE":0,"CLASSIFICATION_TYPE":"U","NORAD_CAT_ID":56706,"ELEMENT_SET_NO":999,"REV_AT_EPOCH":13103,"BSTAR":0.00010445769,"MEAN_MOTION_DOT":1.208e-5,"MEAN_MOTION_DDOT":0},{"OBJECT_NAME":"STARLINK-30070","OBJECT_ID":"2023-067V","EPOCH":"2025-09-26T12:13:39.817632","MEAN_MOTION":15.02548541,"ECCENTRICITY":0.00015501,"INCLINATION":43.0027,"RA_OF_ASC_NODE":86.5202,"ARG_OF_PERICENTER":272.9854,"MEAN_ANOMALY":87.0811,"EPHEMERIS_TYPE":0,"CLASSIFICATION_TYPE":"U","NORAD_CAT_ID":56707,"ELEMENT_SET_NO":999,"REV_AT_EPOCH":13096,"BSTAR":0.00017731437,"MEAN_MOTION_DOT":2.193e-5,"MEAN_MOTION_DDOT":0},{"OBJECT_NAME":"STARLINK-30071","OBJECT_ID":"2023-067W","EPOCH":"2025-09-26T19:53:07.653984","MEAN_MOTION":15.02532452,"ECCENTRICITY":0.00015038,"INCLINATION":43.0029,"RA_OF_ASC_NODE":84.6112,"ARG_OF_PERICENTER":268.6257,"MEAN_ANOMALY":91.4413,"EPHEMERIS_TYPE":0,"CLASSIFICATION_TYPE":"U","NORAD_CAT_ID":56708,"ELEMENT_SET_NO":999,"REV_AT_EPOCH":13101,"BSTAR":0.00014137835,"MEAN_MOTION_DOT":1.706e-5,"MEAN_MOTION_DDOT":0},{"OBJECT_NAME":"STARLINK-30085","OBJECT_ID":"2023-067X","EPOCH":"2025-09-26T20:02:43.011456","MEAN_MOTION":15.02540488,"ECCENTRICITY":7.969e-5,"INCLINATION":42.9988,"RA_OF_ASC_NODE":84.6617,"ARG_OF_PERICENTER":275.6504,"MEAN_ANOMALY":84.4248,"EPHEMERIS_TYPE":0,"CLASSIFICATION_TYPE":"U","NORAD_CAT_ID":56709,"ELEMENT_SET_NO":999,"REV_AT_EPOCH":13075,"BSTAR":-8.5449217e-5,"MEAN_MOTION_DOT":-1.358e-5,"MEAN_MOTION_DDOT":0},{"OBJECT_NAME":"STARLINK-6197","OBJECT_ID":"2023-078A","EPOCH":"2025-09-26T17:10:36.372000","MEAN_MOTION":15.08287321,"ECCENTRICITY":0.00040404,"INCLINATION":69.9966,"RA_OF_ASC_NODE":52.7409,"ARG_OF_PERICENTER":353.6287,"MEAN_ANOMALY":6.4825,"EPHEMERIS_TYPE":0,"CLASSIFICATION_TYPE":"U","NORAD_CAT_ID":56767,"ELEMENT_SET_NO":999,"REV_AT_EPOCH":12775,"BSTAR":0.0027986814,"MEAN_MOTION_DOT":0.00043656,"MEAN_MOTION_DDOT":0},{"OBJECT_NAME":"STARLINK-6198","OBJECT_ID":"2023-078B","EPOCH":"2025-09-27T07:18:43.259904","MEAN_MOTION":14.98333303,"ECCENTRICITY":0.00031451,"INCLINATION":70.0007,"RA_OF_ASC_NODE":16.2729,"ARG_OF_PERICENTER":265.9585,"MEAN_ANOMALY":94.1215,"EPHEMERIS_TYPE":0,"CLASSIFICATION_TYPE":"U","NORAD_CAT_ID":56768,"ELEMENT_SET_NO":999,"REV_AT_EPOCH":12870,"BSTAR":-3.7935491e-5,"MEAN_MOTION_DOT":-5.46e-6,"MEAN_MOTION_DDOT":0}]
