STARLINK-30121          
1 56695U 23067H   25269.85852723  .00001046  00000+0  92472-4 0  9991
2 56695  42.9995  84.8205 0000627 298.0235  62.0543 15.02535056131010
STARLINK-30130          
1 56697U 23067K   25269.83189654  .00003766  00000+0  29379-3 0  9993
2 56697  43.0030  84.6372 0001012 264.4409  95.6318 15.02527069130753
STARLINK-30068          
1 56698U 23067L   25269.83882714  .00014211  00000+0  10666-2 0  9996
2 56698  43.0034  71.7011 0001470 274.4854  85.5820 15.02476301130903
STARLINK-30127          
1 56699U 23067M   25269.78872214  .00000756  00000+0  71001-4 0  9996
2 56699  43.0036  85.1769 0001376 267.2513  92.8172 15.02534043131003
STARLINK-30053          
1 56700U 23067N   25269.85189477 -.00000374  00000+0 -12621-4 0  9990
2 56700  43.0000  84.7896 0000365 309.4965  50.5845 15.02513197131016
STARLINK-30125          
1 56701U 23067P   25269.78206249  .00000458  00000+0  48979-4 0  9996
2 56701  43.0034  85.1270 0001400 263.6111  96.4572 15.02533024131006
STARLINK-30117          
1 56702U 23067Q   25269.81867735  .00000479  00000+0  50539-4 0  9992
2 56702  43.0031  85.3352 0001254 269.0085  91.0613 15.02539047131002
STARLINK-30132          
1 56703U 23067R   25269.84520696  .00000341  00000+0  40298-4 0  9997
2 56703  43.0042  84.7337 0001515 274.2214  85.8456 15.02535510131011
STARLINK-30066          
1 56704U 23067S   25269.82522900  .00000779  00000+0  72773-4 0  9994
2 56704  43.0043  84.5726 0001162 275.3035  84.7675 15.02532532131016
STARLINK-30080          
1 56705U 23067T   25269.76901698  .00003152  00000+0  24830-3 0  9991
2 56705  43.0040  72.0994 0001981 271.6711  88.3905 15.02540365131156
STARLINK-30079          
1 56706U 23067U   25269.97150334  .00001208  00000+0  10446-3 0  9996
2 56706  43.0027  83.9650 0001546 265.6970  94.3695 15.02534607131031
STARLINK-30070          
1 56707U 23067V   25269.50948863  .00002193  00000+0  17731-3 0  9996
2 56707  43.0027  86.5202 0001550 272.9854  87.0811 15.02548541130963
STARLINK-30071          
1 56708U 23067W   25269.82856081  .00001706  00000+0  14138-3 0  9999
2 56708  43.0029  84.6112 0001503 268.6257  91.4413 15.02532452131010
STARLINK-30085          
1 56709U 23067X   25269.83522004 -.00001358  00000+0 -85449-4 0  9995
2 56709  42.9988  84.6617 0000796 275.6504  84.4248 15.02540488130755
STARLINK-6197           
1 56767U 23078A   25269.71569875  .00043656  00000+0  27987-2 0  9991
2 56767  69.9966  52.7409 0004040 353.6287   6.4825 15.08287321127751
STARLINK-6198           
1 56768U 23078B   25270.30466736 -.00000546  00000+0 -37935-4 0  9990
2 56768  70.0007  16.2729 0003145 265.9585  94.1215 14.98333303128705
